CCSDS_OMM_VERS = 2.0
CREATION_DATE  = 
ORIGINATOR     = 

OBJECT_NAME    = KUIPER-00268
OBJECT_ID      = 2026-030AC
CENTER_NAME    = EARTH
REF_FRAME      = TEME
TIME_SYSTEM    = UTC
MEAN_ELEMENT_THEORY = SGP/SGP4

EPOCH          = 2026-02-28T18:38:51.109152
MEAN_MOTION    = 15.35629616
ECCENTRICITY   = .0001799
INCLINATION    = 51.8831
RA_OF_ASC_NODE = 262.0885
ARG_OF_PERICENTER = 30.0625
MEAN_ANOMALY   = 330.0464

EPHEMERIS_TYPE = 0
CLASSIFICATION_TYPE = U
NORAD_CAT_ID   = 67790
ELEMENT_SET_NO = 999
REV_AT_EPOCH   = 372
BSTAR          = .60632E-3
MEAN_MOTION_DOT = .21002E-3
MEAN_MOTION_DDOT = 0

CCSDS_OMM_VERS = 2.0
CREATION_DATE  = 
ORIGINATOR     = 

OBJECT_NAME    = KUIPER-00270
OBJECT_ID      = 2026-030AD
CENTER_NAME    = EARTH
REF_FRAME      = TEME
TIME_SYSTEM    = UTC
MEAN_ELEMENT_THEORY = SGP/SGP4

EPOCH          = 2026-02-28T19:00:14.869728
MEAN_MOTION    = 15.34223358
ECCENTRICITY   = .0009934
INCLINATION    = 51.8799
RA_OF_ASC_NODE = 262.1771
ARG_OF_PERICENTER = 31.8099
MEAN_ANOMALY   = 328.3485

EPHEMERIS_TYPE = 0
CLASSIFICATION_TYPE = U
NORAD_CAT_ID   = 67791
ELEMENT_SET_NO = 999
REV_AT_EPOCH   = 372
BSTAR          = .53789E-3
MEAN_MOTION_DOT = .17777E-3
MEAN_MOTION_DDOT = 0

CCSDS_OMM_VERS = 2.0
CREATION_DATE  = 
ORIGINATOR     = 

OBJECT_NAME    = KUIPER-00274
OBJECT_ID      = 2026-030AE
CENTER_NAME    = EARTH
REF_FRAME      = TEME
TIME_SYSTEM    = UTC
MEAN_ELEMENT_THEORY = SGP/SGP4

EPOCH          = 2026-02-28T19:25:48.900864
MEAN_MOTION    = 15.31698732
ECCENTRICITY   = .0017219
INCLINATION    = 51.8834
RA_OF_ASC_NODE = 262.2954
ARG_OF_PERICENTER = 42.5365
MEAN_ANOMALY   = 317.6950

EPHEMERIS_TYPE = 0
CLASSIFICATION_TYPE = U
NORAD_CAT_ID   = 67792
ELEMENT_SET_NO = 999
REV_AT_EPOCH   = 372
BSTAR          = -.46435E-3
MEAN_MOTION_DOT = -.1484E-3
MEAN_MOTION_DDOT = 0

CCSDS_OMM_VERS = 2.0
CREATION_DATE  = 
ORIGINATOR     = 

OBJECT_NAME    = KUIPER-00275
OBJECT_ID      = 2026-030AF
CENTER_NAME    = EARTH
REF_FRAME      = TEME
TIME_SYSTEM    = UTC
MEAN_ELEMENT_THEORY = SGP/SGP4

EPOCH          = 2026-02-28T20:30:35.826912
MEAN_MOTION    = 15.34305027
ECCENTRICITY   = .0008838
INCLINATION    = 51.8832
RA_OF_ASC_NODE = 261.8570
ARG_OF_PERICENTER = 28.7858
MEAN_ANOMALY   = 331.3614

EPHEMERIS_TYPE = 0
CLASSIFICATION_TYPE = U
NORAD_CAT_ID   = 67793
ELEMENT_SET_NO = 999
REV_AT_EPOCH   = 373
BSTAR          = .81311E-3
MEAN_MOTION_DOT = .27165E-3
MEAN_MOTION_DDOT = 0

CCSDS_OMM_VERS = 2.0
CREATION_DATE  = 
ORIGINATOR     = 

OBJECT_NAME    = KUIPER-00276
OBJECT_ID      = 2026-030AG
CENTER_NAME    = EARTH
REF_FRAME      = TEME
TIME_SYSTEM    = UTC
MEAN_ELEMENT_THEORY = SGP/SGP4

EPOCH          = 2026-02-28T19:30:57.659904
MEAN_MOTION    = 15.31525935
ECCENTRICITY   = .0018051
INCLINATION    = 51.8825
RA_OF_ASC_NODE = 262.3169
ARG_OF_PERICENTER = 39.1089
MEAN_ANOMALY   = 321.1196

EPHEMERIS_TYPE = 0
CLASSIFICATION_TYPE = U
NORAD_CAT_ID   = 67794
ELEMENT_SET_NO = 999
REV_AT_EPOCH   = 372
BSTAR          = .23714E-3
MEAN_MOTION_DOT = .6992E-4
MEAN_MOTION_DDOT = 0

CCSDS_OMM_VERS = 2.0
CREATION_DATE  = 
ORIGINATOR     = 

OBJECT_NAME    = KUIPER-00279
OBJECT_ID      = 2026-030AH
CENTER_NAME    = EARTH
REF_FRAME      = TEME
TIME_SYSTEM    = UTC
MEAN_ELEMENT_THEORY = SGP/SGP4

EPOCH          = 2026-02-28T18:49:54.434784
MEAN_MOTION    = 15.34944692
ECCENTRICITY   = .0006234
INCLINATION    = 51.8787
RA_OF_ASC_NODE = 262.1312
ARG_OF_PERICENTER = 24.6384
MEAN_ANOMALY   = 335.4898

EPHEMERIS_TYPE = 0
CLASSIFICATION_TYPE = U
NORAD_CAT_ID   = 67795
ELEMENT_SET_NO = 999
REV_AT_EPOCH   = 372
BSTAR          = .79517E-3
MEAN_MOTION_DOT = .27093E-3
MEAN_MOTION_DDOT = 0

CCSDS_OMM_VERS = 2.0
CREATION_DATE  = 
ORIGINATOR     = 

OBJECT_NAME    = CREW DRAGON 12
OBJECT_ID      = 2026-031A
CENTER_NAME    = EARTH
REF_FRAME      = TEME
TIME_SYSTEM    = UTC
MEAN_ELEMENT_THEORY = SGP/SGP4

EPOCH          = 2026-02-28T19:13:01.267968
MEAN_MOTION    = 15.48366084
ECCENTRICITY   = .00083
INCLINATION    = 51.6324
RA_OF_ASC_NODE = 116.3006
ARG_OF_PERICENTER = 143.3436
MEAN_ANOMALY   = 216.8121

EPHEMERIS_TYPE = 0
CLASSIFICATION_TYPE = U
NORAD_CAT_ID   = 67796
ELEMENT_SET_NO = 999
REV_AT_EPOCH   = 55469
BSTAR          = .17348E-3
MEAN_MOTION_DOT = .8918E-4
MEAN_MOTION_DDOT = 0

CCSDS_OMM_VERS = 2.0
CREATION_DATE  = 
ORIGINATOR     = 

OBJECT_NAME    = STARLINK-36800
OBJECT_ID      = 2026-032A
CENTER_NAME    = EARTH
REF_FRAME      = TEME
TIME_SYSTEM    = UTC
MEAN_ELEMENT_THEORY = SGP/SGP4

EPOCH          = 2026-02-28T19:11:29.995872
MEAN_MOTION    = 15.75338944
ECCENTRICITY   = .0001464
INCLINATION    = 97.2847
RA_OF_ASC_NODE = 245.8435
ARG_OF_PERICENTER = 69.7533
MEAN_ANOMALY   = 290.3889

EPHEMERIS_TYPE = 0
CLASSIFICATION_TYPE = U
NORAD_CAT_ID   = 67797
ELEMENT_SET_NO = 999
REV_AT_EPOCH   = 338
BSTAR          = -.10882E-2
MEAN_MOTION_DOT = -.160474E-2
MEAN_MOTION_DDOT = 0

CCSDS_OMM_VERS = 2.0
CREATION_DATE  = 
ORIGINATOR     = 

OBJECT_NAME    = STARLINK-36798
OBJECT_ID      = 2026-032B
CENTER_NAME    = EARTH
REF_FRAME      = TEME
TIME_SYSTEM    = UTC
MEAN_ELEMENT_THEORY = SGP/SGP4

EPOCH          = 2026-02-28T19:05:37.238496
MEAN_MOTION    = 15.80878955
ECCENTRICITY   = .0002448
INCLINATION    = 97.2844
RA_OF_ASC_NODE = 245.8488
ARG_OF_PERICENTER = 48.3577
MEAN_ANOMALY   = 311.7900

EPHEMERIS_TYPE = 0
CLASSIFICATION_TYPE = U
NORAD_CAT_ID   = 67798
ELEMENT_SET_NO = 999
REV_AT_EPOCH   = 338
BSTAR          = .10349E-2
MEAN_MOTION_DOT = .203374E-2
MEAN_MOTION_DDOT = 0

CCSDS_OMM_VERS = 2.0
CREATION_DATE  = 
ORIGINATOR     = 

OBJECT_NAME    = STARLINK-36804
OBJECT_ID      = 2026-032C
CENTER_NAME    = EARTH
REF_FRAME      = TEME
TIME_SYSTEM    = UTC
MEAN_ELEMENT_THEORY = SGP/SGP4

EPOCH          = 2026-02-28T16:06:00.023040
MEAN_MOTION    = 15.75346467
ECCENTRICITY   = .0000952
INCLINATION    = 97.2848
RA_OF_ASC_NODE = 245.7128
ARG_OF_PERICENTER = 82.2555
MEAN_ANOMALY   = 277.8818

EPHEMERIS_TYPE = 0
CLASSIFICATION_TYPE = U
NORAD_CAT_ID   = 67799
ELEMENT_SET_NO = 999
REV_AT_EPOCH   = 336
BSTAR          = -.21023E-2
MEAN_MOTION_DOT = -.304824E-2
MEAN_MOTION_DDOT = 0

CCSDS_OMM_VERS = 2.0
CREATION_DATE  = 
ORIGINATOR     = 

OBJECT_NAME    = STARLINK-36354
OBJECT_ID      = 2026-032D
CENTER_NAME    = EARTH
REF_FRAME      = TEME
TIME_SYSTEM    = UTC
MEAN_ELEMENT_THEORY = SGP/SGP4

EPOCH          = 2026-02-28T19:02:46.805856
MEAN_MOTION    = 15.80905517
ECCENTRICITY   = .000165
INCLINATION    = 97.2851
RA_OF_ASC_NODE = 245.8527
ARG_OF_PERICENTER = 70.7417
MEAN_ANOMALY   = 289.4030

EPHEMERIS_TYPE = 0
CLASSIFICATION_TYPE = U
NORAD_CAT_ID   = 67800
ELEMENT_SET_NO = 999
REV_AT_EPOCH   = 338
BSTAR          = .13225E-2
MEAN_MOTION_DOT = .262009E-2
MEAN_MOTION_DDOT = 0

CCSDS_OMM_VERS = 2.0
CREATION_DATE  = 
ORIGINATOR     = 

OBJECT_NAME    = STARLINK-36773
OBJECT_ID      = 2026-032E
CENTER_NAME    = EARTH
REF_FRAME      = TEME
TIME_SYSTEM    = UTC
MEAN_ELEMENT_THEORY = SGP/SGP4

EPOCH          = 2026-02-28T11:27:18.809856
MEAN_MOTION    = 15.77409165
ECCENTRICITY   = .0000761
INCLINATION    = 97.2844
RA_OF_ASC_NODE = 245.5163
ARG_OF_PERICENTER = 88.1892
MEAN_ANOMALY   = 271.9461

EPHEMERIS_TYPE = 0
CLASSIFICATION_TYPE = U
NORAD_CAT_ID   = 67801
ELEMENT_SET_NO = 999
REV_AT_EPOCH   = 333
BSTAR          = -.52313E-2
MEAN_MOTION_DOT = -.785481E-2
MEAN_MOTION_DDOT = 0

CCSDS_OMM_VERS = 2.0
CREATION_DATE  = 
ORIGINATOR     = 

OBJECT_NAME    = STARLINK-36739
OBJECT_ID      = 2026-032F
CENTER_NAME    = EARTH
REF_FRAME      = TEME
TIME_SYSTEM    = UTC
MEAN_ELEMENT_THEORY = SGP/SGP4

EPOCH          = 2026-02-28T18:58:46.282944
MEAN_MOTION    = 15.80886780
ECCENTRICITY   = .000145
INCLINATION    = 97.2841
RA_OF_ASC_NODE = 245.8550
ARG_OF_PERICENTER = 77.0005
MEAN_ANOMALY   = 283.1425

EPHEMERIS_TYPE = 0
CLASSIFICATION_TYPE = U
NORAD_CAT_ID   = 67802
ELEMENT_SET_NO = 999
REV_AT_EPOCH   = 338
BSTAR          = .10913E-2
MEAN_MOTION_DOT = .214817E-2
MEAN_MOTION_DDOT = 0

CCSDS_OMM_VERS = 2.0
CREATION_DATE  = 
ORIGINATOR     = 

OBJECT_NAME    = STARLINK-36768
OBJECT_ID      = 2026-032G
CENTER_NAME    = EARTH
REF_FRAME      = TEME
TIME_SYSTEM    = UTC
MEAN_ELEMENT_THEORY = SGP/SGP4

EPOCH          = 2026-02-28T11:24:17.807040
MEAN_MOTION    = 15.80856235
ECCENTRICITY   = .0001084
INCLINATION    = 97.2843
RA_OF_ASC_NODE = 245.5187
ARG_OF_PERICENTER = 88.3994
MEAN_ANOMALY   = 271.7398

EPHEMERIS_TYPE = 0
CLASSIFICATION_TYPE = U
NORAD_CAT_ID   = 67803
ELEMENT_SET_NO = 999
REV_AT_EPOCH   = 333
BSTAR          = .1265E-2
MEAN_MOTION_DOT = .249695E-2
MEAN_MOTION_DDOT = 0

CCSDS_OMM_VERS = 2.0
CREATION_DATE  = 
ORIGINATOR     = 

OBJECT_NAME    = STARLINK-36792
OBJECT_ID      = 2026-032H
CENTER_NAME    = EARTH
REF_FRAME      = TEME
TIME_SYSTEM    = UTC
MEAN_ELEMENT_THEORY = SGP/SGP4

EPOCH          = 2026-02-28T18:59:31.101216
MEAN_MOTION    = 15.77149815
ECCENTRICITY   = .0005848
INCLINATION    = 97.2827
RA_OF_ASC_NODE = 245.8536
ARG_OF_PERICENTER = 20.2112
MEAN_ANOMALY   = 339.9385

EPHEMERIS_TYPE = 0
CLASSIFICATION_TYPE = U
NORAD_CAT_ID   = 67804
ELEMENT_SET_NO = 999
REV_AT_EPOCH   = 338
BSTAR          = -.18271E-2
MEAN_MOTION_DOT = -.287763E-2
MEAN_MOTION_DDOT = 0

